{
  "norad_id": 68350,
  "name": "CENTISPACE-1 OBJECT A",
  "history": [
    {
      "epoch": "2026-03-28T22:33:13.371840Z",
      "apogee_km": 653.9634212698493,
      "perigee_km": 637.1329858376866,
      "latitude_deg": 4.3707232506005795e-05,
      "longitude_deg": -161.5744696242165,
      "height_km": 641.653599214776,
      "semi_major_axis_km": 7023.685203553768,
      "eccentricity": 0.00119812,
      "inclination_deg": 54.9852,
      "raan_deg": 3.0842,
      "arg_perigee_deg": 306.1776,
      "mean_anomaly_deg": 53.8115,
      "mean_motion_rev_day": 14.74874966
    },
    {
      "epoch": "2026-03-29T05:03:35.889120Z",
      "apogee_km": 654.387119942433,
      "perigee_km": 636.7042963563954,
      "latitude_deg": -1.3431301916082157e-05,
      "longitude_deg": 99.46726625461979,
      "height_km": 641.3422252229906,
      "semi_major_axis_km": 7023.682708149414,
      "eccentricity": 0.0012588,
      "inclination_deg": 54.9829,
      "raan_deg": 1.987,
      "arg_perigee_deg": 306.6365,
      "mean_anomaly_deg": 53.3476,
      "mean_motion_rev_day": 14.74875752
    },
    {
      "epoch": "2026-03-30T05:27:29.941632Z",
      "apogee_km": 654.6325919326091,
      "perigee_km": 636.4510968759841,
      "latitude_deg": -2.7626773193129737e-05,
      "longitude_deg": 88.34313368234189,
      "height_km": 640.565891615515,
      "semi_major_axis_km": 7023.678844404296,
      "eccentricity": 0.0012943,
      "inclination_deg": 54.9836,
      "raan_deg": 357.8401,
      "arg_perigee_deg": 311.7098,
      "mean_anomaly_deg": 48.2793,
      "mean_motion_rev_day": 14.74876969
    }
  ]
}